CCSDS_OMM_VERS = 2.0
CREATION_DATE  = 
ORIGINATOR     = 

OBJECT_NAME    = SL-16 R/B
OBJECT_ID      = 1988-039B
CENTER_NAME    = EARTH
REF_FRAME      = TEME
TIME_SYSTEM    = UTC
MEAN_ELEMENT_THEORY = SGP/SGP4

EPOCH          = 2026-03-06T09:16:51.711168
MEAN_MOTION    = 14.19615621
ECCENTRICITY   = .00225849
INCLINATION    = 71.0131
RA_OF_ASC_NODE = 75.5323
ARG_OF_PERICENTER = 339.1784
MEAN_ANOMALY   = 20.8419

EPHEMERIS_TYPE = 0
CLASSIFICATION_TYPE = U
NORAD_CAT_ID   = 19120
ELEMENT_SET_NO = 999
REV_AT_EPOCH   = 95791
BSTAR          = -.38618404E-4
MEAN_MOTION_DOT = -.13E-5
MEAN_MOTION_DDOT = 0

CCSDS_OMM_VERS = 2.0
CREATION_DATE  = 
ORIGINATOR     = 

OBJECT_NAME    = COSMOS 1953
OBJECT_ID      = 1988-050A
CENTER_NAME    = EARTH
REF_FRAME      = TEME
TIME_SYSTEM    = UTC
MEAN_ELEMENT_THEORY = SGP/SGP4

EPOCH          = 2026-03-06T08:27:21.105504
MEAN_MOTION    = 15.28452731
ECCENTRICITY   = .00123872
INCLINATION    = 82.5105
RA_OF_ASC_NODE = 161.6021
ARG_OF_PERICENTER = 133.2104
MEAN_ANOMALY   = 227.0173

EPHEMERIS_TYPE = 0
CLASSIFICATION_TYPE = U
NORAD_CAT_ID   = 19210
ELEMENT_SET_NO = 999
REV_AT_EPOCH   = 3727
BSTAR          = .36585674E-3
MEAN_MOTION_DOT = .10187E-3
MEAN_MOTION_DDOT = 0

CCSDS_OMM_VERS = 2.0
CREATION_DATE  = 
ORIGINATOR     = 

OBJECT_NAME    = SL-8 R/B
OBJECT_ID      = 1988-053B
CENTER_NAME    = EARTH
REF_FRAME      = TEME
TIME_SYSTEM    = UTC
MEAN_ELEMENT_THEORY = SGP/SGP4

EPOCH          = 2026-03-06T13:03:17.629920
MEAN_MOTION    = 14.38913669
ECCENTRICITY   = .00213759
INCLINATION    = 74.0465
RA_OF_ASC_NODE = 118.2653
ARG_OF_PERICENTER = 298.0011
MEAN_ANOMALY   = 206.3496

EPHEMERIS_TYPE = 0
CLASSIFICATION_TYPE = U
NORAD_CAT_ID   = 19257
ELEMENT_SET_NO = 999
REV_AT_EPOCH   = 97614
BSTAR          = .1221607E-3
MEAN_MOTION_DOT = .351E-5
MEAN_MOTION_DDOT = 0

CCSDS_OMM_VERS = 2.0
CREATION_DATE  = 
ORIGINATOR     = 

OBJECT_NAME    = COSMOS 1975
OBJECT_ID      = 1988-093A
CENTER_NAME    = EARTH
REF_FRAME      = TEME
TIME_SYSTEM    = UTC
MEAN_ELEMENT_THEORY = SGP/SGP4

EPOCH          = 2026-03-06T04:31:35.146272
MEAN_MOTION    = 15.28008132
ECCENTRICITY   = .00118677
INCLINATION    = 82.5188
RA_OF_ASC_NODE = 121.2001
ARG_OF_PERICENTER = 175.1443
MEAN_ANOMALY   = 184.9914

EPHEMERIS_TYPE = 0
CLASSIFICATION_TYPE = U
NORAD_CAT_ID   = 19573
ELEMENT_SET_NO = 999
REV_AT_EPOCH   = 1887
BSTAR          = .30187089E-3
MEAN_MOTION_DOT = .8295E-4
MEAN_MOTION_DDOT = 0

CCSDS_OMM_VERS = 2.0
CREATION_DATE  = 
ORIGINATOR     = 

OBJECT_NAME    = SL-14 R/B
OBJECT_ID      = 1988-093B
CENTER_NAME    = EARTH
REF_FRAME      = TEME
TIME_SYSTEM    = UTC
MEAN_ELEMENT_THEORY = SGP/SGP4

EPOCH          = 2026-03-06T09:08:16.158912
MEAN_MOTION    = 14.85651838
ECCENTRICITY   = .00219645
INCLINATION    = 82.5299
RA_OF_ASC_NODE = 45.1501
ARG_OF_PERICENTER = 51.8689
MEAN_ANOMALY   = 109.4415

EPHEMERIS_TYPE = 0
CLASSIFICATION_TYPE = U
NORAD_CAT_ID   = 19574
ELEMENT_SET_NO = 999
REV_AT_EPOCH   = 52
BSTAR          = .92238184E-4
MEAN_MOTION_DOT = .827E-5
MEAN_MOTION_DDOT = 0

CCSDS_OMM_VERS = 2.0
CREATION_DATE  = 
ORIGINATOR     = 

OBJECT_NAME    = SL-16 R/B
OBJECT_ID      = 1988-102B
CENTER_NAME    = EARTH
REF_FRAME      = TEME
TIME_SYSTEM    = UTC
MEAN_ELEMENT_THEORY = SGP/SGP4

EPOCH          = 2026-03-06T08:57:22.827168
MEAN_MOTION    = 14.16150141
ECCENTRICITY   = .00137339
INCLINATION    = 71.0000
RA_OF_ASC_NODE = 158.4751
ARG_OF_PERICENTER = 6.7400
MEAN_ANOMALY   = 353.3905

EPHEMERIS_TYPE = 0
CLASSIFICATION_TYPE = U
NORAD_CAT_ID   = 19650
ELEMENT_SET_NO = 999
REV_AT_EPOCH   = 92642
BSTAR          = .11628005E-3
MEAN_MOTION_DOT = .182E-5
MEAN_MOTION_DDOT = 0

CCSDS_OMM_VERS = 2.0
CREATION_DATE  = 
ORIGINATOR     = 

OBJECT_NAME    = INTERCOSMOS 24
OBJECT_ID      = 1989-080A
CENTER_NAME    = EARTH
REF_FRAME      = TEME
TIME_SYSTEM    = UTC
MEAN_ELEMENT_THEORY = SGP/SGP4

EPOCH          = 2026-03-06T03:34:16.993056
MEAN_MOTION    = 12.59551016
ECCENTRICITY   = .118676
INCLINATION    = 82.6030
RA_OF_ASC_NODE = 106.7103
ARG_OF_PERICENTER = 301.0471
MEAN_ANOMALY   = 47.9344

EPHEMERIS_TYPE = 0
CLASSIFICATION_TYPE = U
NORAD_CAT_ID   = 20261
ELEMENT_SET_NO = 999
REV_AT_EPOCH   = 66635
BSTAR          = .24600761E-3
MEAN_MOTION_DOT = .827E-5
MEAN_MOTION_DDOT = 0

CCSDS_OMM_VERS = 2.0
CREATION_DATE  = 
ORIGINATOR     = 

OBJECT_NAME    = SL-14 R/B
OBJECT_ID      = 1989-080C
CENTER_NAME    = EARTH
REF_FRAME      = TEME
TIME_SYSTEM    = UTC
MEAN_ELEMENT_THEORY = SGP/SGP4

EPOCH          = 2026-03-06T08:31:14.458944
MEAN_MOTION    = 12.50488976
ECCENTRICITY   = .12304461
INCLINATION    = 82.5973
RA_OF_ASC_NODE = 175.3263
ARG_OF_PERICENTER = 192.3694
MEAN_ANOMALY   = 164.4455

EPHEMERIS_TYPE = 0
CLASSIFICATION_TYPE = U
NORAD_CAT_ID   = 20262
ELEMENT_SET_NO = 999
REV_AT_EPOCH   = 65973
BSTAR          = .26385354E-3
MEAN_MOTION_DOT = .887E-5
MEAN_MOTION_DDOT = 0

CCSDS_OMM_VERS = 2.0
CREATION_DATE  = 
ORIGINATOR     = 

OBJECT_NAME    = DELTA 1 R/B
OBJECT_ID      = 1989-089B
CENTER_NAME    = EARTH
REF_FRAME      = TEME
TIME_SYSTEM    = UTC
MEAN_ELEMENT_THEORY = SGP/SGP4

EPOCH          = 2026-03-06T07:26:22.313472
MEAN_MOTION    = 14.50659968
ECCENTRICITY   = .00702627
INCLINATION    = 97.0707
RA_OF_ASC_NODE = 273.2862
ARG_OF_PERICENTER = 132.5106
MEAN_ANOMALY   = 228.2056

EPHEMERIS_TYPE = 0
CLASSIFICATION_TYPE = U
NORAD_CAT_ID   = 20323
ELEMENT_SET_NO = 999
REV_AT_EPOCH   = 89524
BSTAR          = .12720245E-3
MEAN_MOTION_DOT = .481E-5
MEAN_MOTION_DDOT = 0

CCSDS_OMM_VERS = 2.0
CREATION_DATE  = 
ORIGINATOR     = 

OBJECT_NAME    = ARIANE 40 R/B
OBJECT_ID      = 1990-005H
CENTER_NAME    = EARTH
REF_FRAME      = TEME
TIME_SYSTEM    = UTC
MEAN_ELEMENT_THEORY = SGP/SGP4

EPOCH          = 2026-03-06T09:48:11.294784
MEAN_MOTION    = 14.39867975
ECCENTRICITY   = .00096416
INCLINATION    = 98.3090
RA_OF_ASC_NODE = 126.1676
ARG_OF_PERICENTER = 208.5951
MEAN_ANOMALY   = 151.4710

EPHEMERIS_TYPE = 0
CLASSIFICATION_TYPE = U
NORAD_CAT_ID   = 20443
ELEMENT_SET_NO = 999
REV_AT_EPOCH   = 89233
BSTAR          = .13222166E-3
MEAN_MOTION_DOT = .373E-5
MEAN_MOTION_DDOT = 0

CCSDS_OMM_VERS = 2.0
CREATION_DATE  = 
ORIGINATOR     = 

OBJECT_NAME    = DELTA 2 R/B(1)
OBJECT_ID      = 1990-008B
CENTER_NAME    = EARTH
REF_FRAME      = TEME
TIME_SYSTEM    = UTC
MEAN_ELEMENT_THEORY = SGP/SGP4

EPOCH          = 2026-03-06T10:08:42.055872
MEAN_MOTION    = 15.55480561
ECCENTRICITY   = .00861642
INCLINATION    = 35.6042
RA_OF_ASC_NODE = 196.2874
ARG_OF_PERICENTER = 228.5737
MEAN_ANOMALY   = 130.7570

EPHEMERIS_TYPE = 0
CLASSIFICATION_TYPE = U
NORAD_CAT_ID   = 20453
ELEMENT_SET_NO = 999
REV_AT_EPOCH   = 92562
BSTAR          = .84423323E-3
MEAN_MOTION_DOT = .7104E-3
MEAN_MOTION_DDOT = 0

